BEIDOU-2 IGSO-5         
1 37948U 11073A   26163.78189384 -.00000165  00000+0  00000+0 0  9990
2 37948  47.6870 271.6014 0113781 221.6023 141.1385  1.00273641 53097
LUCH-5A                 
1 37951U 11074B   26163.51177001 -.00000042  00000+0  00000+0 0  9993
2 37951   8.7416  73.8760 0002183  22.9645 155.2063  1.00269773 53001
BEIDOU-2 G5             
1 38091U 12008A   26163.98935588  .00000068  00000+0  00000+0 0  9997
2 38091   3.5618  69.7250 0009172 273.6885 332.7240  1.00270831 52328
BEIDOU-2 M3             
1 38250U 12018A   26163.35604823 -.00000069  00000+0  00000+0 0  9993
2 38250  55.7625 305.0387 0020082 274.1889  85.5633  1.86229921 95854
BEIDOU-2 M4             
1 38251U 12018B   26163.82529677 -.00000069  00000+0  00000+0 0  9999
2 38251  55.6622 304.2372 0011279 276.2028  83.6498  1.86229596 95869
SES-5                   
1 38652U 12036A   26163.62223597  .00000048  00000+0  00000+0 0  9990
2 38652   0.0481 313.4804 0001837 129.1395  47.3120  1.00270611 44419
BEIDOU-2 M6             
1 38775U 12050B   26164.07202103 -.00000056  00000+0  00000+0 0  9992
2 38775  56.5408  63.0305 0013772 356.7295   3.2873  1.86230840 93236
GSAT-10                 
1 38779U 12051B   26164.06546045 -.00000151  00000+0  00000+0 0  9998
2 38779   0.0913 263.6760 0007792 183.2206 281.0783  1.00270460 50055
NAVSTAR 67 (USA 239)    
1 38833U 12053A   26163.33055593  .00000080  00000+0  00000+0 0  9993
2 38833  53.5851 143.7983 0180021  65.6824 296.1754  2.00567345 99343
GSAT0103 (GALILEO-FM3)  
1 38857U 12055A   26162.02314896  .00000014  00000+0  00000+0 0  9997
2 38857  55.8029 101.7147 0004991 304.7651  55.1525  1.70473353 84909
BEIDOU-2 G6             
1 38953U 12059A   26163.85175780 -.00000165  00000+0  00000+0 0  9995
2 38953   4.4090  73.5707 0009723 324.5872 253.6772  1.00273022 49864
LUCH-5B                 
1 38977U 12061A   26163.97444869 -.00000133  00000+0  00000+0 0  9999
2 38977  10.4721  49.9205 0002346 149.8007  36.0976  1.00272671 49565
COSMOS 2485 [GLONASS-M] 
1 39155U 13019A   26164.15591044 -.00000031  00000+0  00000+0 0  9998
2 39155  65.4173  73.7400 0023242 234.2149 125.5877  2.13103375102193
NAVSTAR 68 (USA 242)    
1 39166U 13023A   26164.19452343 -.00000022  00000+0  00000+0 0  9997
2 39166  54.5073 269.1364 0141554  51.0317 310.2420  2.00563403 95806
IRNSS-1A                
1 39199U 13034A   26160.59779131  .00000070  00000+0  00000+0 0  9994
2 39199  35.7049  63.9797 0017411 184.2474 279.8453  1.00272948 47299
NAVSTAR 69 (USA 248)    
1 39533U 14008A   26164.19614775  .00000077  00000+0  00000+0 0  9997
2 39533  53.6540 149.4824 0084241 231.2219 128.0162  2.00559470 89604
ASTRA 5B                
1 39617U 14011B   26164.26750512  .00000149  00000+0  00000+0 0  9992
2 39617   0.0488 330.8836 0001793 100.2743 310.2193  1.00271699 44626
COSMOS 2492 [GLONASS-M] 
1 39620U 14012A   26160.36073044 -.00000033  00000+0  00000+0 0  9995
2 39620  65.3026 314.2024 0010486 325.9791  33.9512  2.13103521 95077
IRNSS-1B                
1 39635U 14017A   26163.77489382  .00000132  00000+0  00000+0 0  9999
2 39635  28.9293 240.4792 0022996 189.7965 164.8784  1.00274964 44742
LUCH-5V                 
1 39727U 14023A   26163.82802826 -.00000259  00000+0  00000+0 0  9997
2 39727   5.1201  69.7874 0001912  42.2592 181.8480  1.00276420 44311
NAVSTAR 70 (USA 251)    
1 39741U 14026A   26163.97301805 -.00000070  00000+0  00000+0 0  9994
2 39741  56.5005 331.6815 0038204 326.6267  33.1328  2.00561184 88455
COSMOS 2500 [GLONASS-M] 
1 40001U 14032A   26164.28459738 -.00000051  00000+0  00000+0 0  9995
2 40001  65.2352 313.8168 0007280 184.1744 175.8059  2.13106047 93377
NAVSTAR 71 (USA 256)    
1 40105U 14045A   26164.06472911 -.00000028  00000+0  00000+0 0  9992
2 40105  55.3506  88.6292 0033124 118.2970 242.0218  2.00558052 85999
GSAT0201 (GALILEO 5)    
1 40128U 14050A   26161.94910067 -.00000052  00000+0  00000+0 0  9993
2 40128  48.8825 273.6924 1673633 179.1491 181.2193  1.85519989 78203
GSAT0202 (GALILEO 6)    
1 40129U 14050B   26163.28262524 -.00000046  00000+0  00000+0 0  9994
2 40129  48.8977 272.7230 1675111 179.9338 180.1383  1.85520692 80398
IRNSS-1C                
1 40269U 14061A   26163.85149780 -.00000152  00000+0  00000+0 0  9990
2 40269   6.5073  89.0124 0022715   1.9196 199.7837  1.00270018 42640
NAVSTAR 72 (USA 258)    
1 40294U 14068A   26163.93501465 -.00000061  00000+0  00000+0 0  9995
2 40294  56.9847  31.1185 0066962  70.4280 290.3526  2.00575830 85122
COSMOS 2501 [GLONASS-K] 
1 40315U 14075A   26164.07739897  .00000117  00000+0  00000+0 0  9996
2 40315  63.6161 190.5143 0022567 212.1681 147.7675  2.13101424 89769
NAVSTAR 73 (USA 260)    
1 40534U 15013A   26164.07363621  .00000096  00000+0  00000+0 0  9996
2 40534  53.1681 204.3478 0109417  40.1082 320.7834  2.00551549 81745
GSAT0203 (GALILEO 7)    
1 40544U 15017A   26162.34701021 -.00000066  00000+0  00000+0 0  9997
2 40544  56.7895 341.7548 0002091 278.1581  81.8319  1.70476009 69105
GSAT0204 (GALILEO 8)    
1 40545U 15017B   26162.60278512 -.00000067  00000+0  00000+0 0  9992
2 40545  56.7979 341.7663 0001892 248.9862 111.0068  1.70475611 32152
