OBJECT_NAME,OBJECT_ID,EPOCH,MEAN_MOTION,ECCENTRICITY,INCLINATION,RA_OF_ASC_NODE,ARG_OF_PERICENTER,MEAN_ANOMALY,EPHEMERIS_TYPE,CLASSIFICATION_TYPE,NORAD_CAT_ID,ELEMENT_SET_NO,REV_AT_EPOCH,BSTAR,MEAN_MOTION_DOT,MEAN_MOTION_DDOT
BEIDOU-2 IGSO-5 (C10),2011-073A,2026-06-12T18:45:55.627776,1.00273641,.01137811,47.6870,271.6014,221.6023,141.1385,0,U,37948,999,5309,0,-.165E-5,0
LUCH 5A (SDCM/PRN 140),2011-074B,2026-06-12T12:16:56.928864,1.00269773,.00021837,8.7416,73.8760,22.9645,155.2063,0,U,37951,999,5300,0,-.42E-6,0
BEIDOU-2 G5 (C05),2012-008A,2026-06-12T23:44:40.348032,1.00270831,.00091722,3.5618,69.7250,273.6885,332.7240,0,U,38091,999,5232,0,.68E-6,0
BEIDOU-2 M3 (C11),2012-018A,2026-06-12T08:32:42.567072,1.86229921,.00200825,55.7625,305.0387,274.1889,85.5633,0,U,38250,999,9585,0,-.69E-6,0
BEIDOU-2 M4 (C12),2012-018B,2026-06-12T19:48:25.640928,1.86229596,.00112794,55.6622,304.2372,276.2028,83.6498,0,U,38251,999,9586,0,-.69E-6,0
SES-5 (EGNOS/PRN 136),2012-036A,2026-06-12T14:56:01.187808,1.00270611,.00018371,0.0481,313.4804,129.1395,47.3120,0,U,38652,999,4441,0,.48E-6,0
BEIDOU-2 M6 (C14),2012-050B,2026-06-13T01:43:42.616992,1.86230840,.00137722,56.5408,63.0305,356.7295,3.2873,0,U,38775,999,9323,0,-.56E-6,0
GSAT-10 (GAGAN/PRN 128),2012-051B,2026-06-13T01:34:15.782880,1.00270460,.00077924,0.0913,263.6760,183.2206,281.0783,0,U,38779,999,5005,0,-.151E-5,0
GPS BIIF-3  (PRN 24),2012-053A,2026-06-12T07:56:00.032352,2.00567345,.01800213,53.5851,143.7983,65.6824,296.1754,0,U,38833,999,9934,0,.8E-6,0
GSAT0103 (GALILEO-FM3),2012-055A,2026-06-11T00:33:20.070144,1.70473353,.0004991,55.8029,101.7147,304.7651,55.1525,0,U,38857,999,8490,0,.14E-6,0
BEIDOU-2 G6 (C02),2012-059A,2026-06-12T20:26:31.873920,1.00273022,.00097233,4.4090,73.5707,324.5872,253.6772,0,U,38953,999,4986,0,-.165E-5,0
LUCH 5B (SDCM/PRN 125),2012-061A,2026-06-12T23:23:12.366816,1.00272671,.00023465,10.4721,49.9205,149.8007,36.0976,0,U,38977,999,4956,0,-.133E-5,0
COSMOS 2485 (747),2013-019A,2026-06-13T03:44:30.662016,2.13103375,.00232424,65.4173,73.7400,234.2149,125.5877,0,U,39155,999,10219,0,-.31E-6,0
GPS BIIF-4  (PRN 27),2013-023A,2026-06-13T04:40:06.824352,2.00563403,.01415545,54.5073,269.1364,51.0317,310.2420,0,U,39166,999,9580,0,-.22E-6,0
IRNSS-1A,2013-034A,2026-06-09T14:20:49.169184,1.00272948,.00174117,35.7049,63.9797,184.2474,279.8453,0,U,39199,999,4729,0,.7E-6,0
GPS BIIF-5  (PRN 30),2014-008A,2026-06-13T04:42:27.165600,2.00559470,.00842418,53.6540,149.4824,231.2219,128.0162,0,U,39533,999,8960,0,.77E-6,0
ASTRA 5B (EGNOS/PRN 123),2014-011B,2026-06-13T06:25:12.442368,1.00271699,.00017933,0.0488,330.8836,100.2743,310.2193,0,U,39617,999,4462,0,.149E-5,0
COSMOS 2492 (754),2014-012A,2026-06-09T08:39:27.110016,2.13103521,.00104861,65.3026,314.2024,325.9791,33.9512,0,U,39620,999,9507,0,-.33E-6,0
IRNSS-1B,2014-017A,2026-06-12T18:35:50.826048,1.00274964,.00229967,28.9293,240.4792,189.7965,164.8784,0,U,39635,999,4474,0,.132E-5,0
LUCH 5V (SDCM/PRN 141),2014-023A,2026-06-12T19:52:21.641664,1.00276420,.00019127,5.1201,69.7874,42.2592,181.8480,0,U,39727,999,4431,0,-.259E-5,0
GPS BIIF-6  (PRN 06),2014-026A,2026-06-12T23:21:08.759520,2.00561184,.00382046,56.5005,331.6815,326.6267,33.1328,0,U,39741,999,8845,0,-.7E-6,0
COSMOS 2500 (755),2014-032A,2026-06-13T06:49:49.213632,2.13106047,.00072809,65.2352,313.8168,184.1744,175.8059,0,U,40001,999,9337,0,-.51E-6,0
GPS BIIF-7  (PRN 09),2014-045A,2026-06-13T01:33:12.595104,2.00558052,.00331247,55.3506,88.6292,118.2970,242.0218,0,U,40105,999,8599,0,-.28E-6,0
GSAT0201 (GALILEO 5),2014-050A,2026-06-10T22:46:42.297888,1.85519989,.16736333,48.8825,273.6924,179.1491,181.2193,0,U,40128,999,7820,0,-.52E-6,0
GSAT0202 (GALILEO 6),2014-050B,2026-06-12T06:46:58.820736,1.85520692,.16751114,48.8977,272.7230,179.9338,180.1383,0,U,40129,999,8039,0,-.46E-6,0
IRNSS-1C,2014-061A,2026-06-12T20:26:09.409920,1.00270018,.00227155,6.5073,89.0124,1.9196,199.7837,0,U,40269,999,4264,0,-.152E-5,0
GPS BIIF-8  (PRN 03),2014-068A,2026-06-12T22:26:25.265760,2.00575830,.00669623,56.9847,31.1185,70.4280,290.3526,0,U,40294,999,8512,0,-.61E-6,0
COSMOS 2501 (702K),2014-075A,2026-06-13T01:51:27.271008,2.13101424,.00225676,63.6161,190.5143,212.1681,147.7675,0,U,40315,999,8976,0,.117E-5,0
GPS BIIF-9  (PRN 26),2015-013A,2026-06-13T01:46:02.168544,2.00551549,.01094172,53.1681,204.3478,40.1082,320.7834,0,U,40534,999,8174,0,.96E-6,0
GSAT0203 (GALILEO 7),2015-017A,2026-06-11T08:19:41.682144,1.70476009,.00020918,56.7895,341.7548,278.1581,81.8319,0,U,40544,999,6910,0,-.66E-6,0
GSAT0204 (GALILEO 8),2015-017B,2026-06-11T14:28:00.634368,1.70475611,.00018922,56.7979,341.7663,248.9862,111.0068,0,U,40545,999,3215,0,-.67E-6,0
